NOAA 4 [-]              
1 07529U 74089A   22365.40882628 -.00000012  00000+0  21502-3 0  9993
2 07529 101.9386 345.7946 0009156  86.7485  70.3138 12.53163872201463
NOAA 5 [-]              
1 09057U 76077A   22365.38493281 -.00000015  00000+0  22973-3 0  9996
2 09057 102.1299 331.4752 0009660 134.6477  20.0291 12.37777718 98332
TIROS N [-]             
1 11060U 78096A   22364.73255444  .00000166  00000+0  10123-3 0  9991
2 11060  98.6100  53.0121 0009615 300.7955  59.2274 14.18456307499679
NOAA 6 [-]              
1 11416U 79057A   22364.49665351  .00000306  00000+0  12595-3 0  9990
2 11416  98.6598  15.6287 0011068  44.6991 315.5083 14.33864474269611
NOAA 7 [-]              
1 12553U 81059A   22364.55172425  .00000042  00000+0  43450-4 0  9992
2 12553  98.9737  51.1419 0010507 278.7114  81.2870 14.17364639145577
NOAA 8 [-]              
1 13923U 83022A   22364.50153296  .00000175  00000+0  86962-4 0  9998
2 13923  98.7022 354.4394 0015105   0.3960 359.7230 14.28872341 70400
NOAA 9 [-]              
1 15427U 84123A   22365.50155394  .00000176  00000+0  11211-3 0  9999
2 15427  99.0714 341.2314 0014426 330.6661 137.5459 14.16261413964733
NOAA 10 [-]             
1 16969U 86073A   22364.55094212  .00000153  00000+0  78652-4 0  9990
2 16969  98.5879 347.2921 0013278  97.1919  14.3685 14.28259573888821
NOAA 11 [-]             
1 19531U 88089A   22364.52149748  .00000066  00000+0  54970-4 0  9999
2 19531  98.4455 343.0287 0010744 339.5047  20.5695 14.15342963768556
NOAA 12 [-]             
1 21263U 91032A   22364.53472966  .00000104  00000+0  61458-4 0  9990
2 21263  98.5236 358.9516 0014575 123.1760 237.0820 14.26040165644676
NOAA 13 [-]             
1 22739U 93050A   22364.54143200  .00000146  00000+0  10037-3 0  9990
2 22739  98.5307 334.8068 0010165 137.3310 222.8654 14.12895224514748
NOAA 14 [-]             
1 23455U 94089A   22364.53445729  .00000044  00000+0  44244-4 0  9994
2 23455  98.4346  20.5011 0010484 117.7075 242.5164 14.14227102444425
NOAA 15 [B]             
1 25338U 98030A   22365.49214179  .00000172  00000+0  89756-4 0  9994
2 25338  98.6254  32.2639 0011414  84.1638 276.0843 14.26214747281350
NOAA 16 [-]             
1 26536U 00055A   22364.49595976  .00000075  00000+0  62410-4 0  9991
2 26536  98.6109  56.3740 0009876 331.0500  29.0125 14.13369551445048
NOAA 17 [-]             
1 27453U 02032A   22365.22558372  .00000188  00000+0  98586-4 0  9996
2 27453  98.6967 308.4034 0012821  62.1159 298.1317 14.25183887 66895
NOAA 18 [B]             
1 28654U 05018A   22365.44453857  .00000245  00000+0  15537-3 0  9991
2 28654  98.9299  75.5297 0015063 132.8002 227.4439 14.12830839907881
NOAA 19 [+]             
1 33591U 09005A   22365.53926768  .00000211  00000+0  13879-3 0  9993
2 33591  99.1252  43.5945 0013781 358.4671   1.6455 14.12659168716272
SUOMI NPP [+]           
1 37849U 11061A   22365.43165920  .00000102  00000+0  69127-4 0  9999
2 37849  98.7536 301.4121 0001370  87.0246  50.9506 14.19530430579131
NOAA 20 [+]             
1 43013U 17073A   22365.57990431  .00000097  00000+0  66969-4 0  9990
2 43013  98.7374 301.2080 0001002 116.2762 243.8517 14.19540130265194
NOAA 21 (JPSS-2) [+]    
1 54234U 22150A   22365.59775094  .00000112  00000+0  73793-4 0  9998
2 54234  98.7014 301.3167 0001104  86.1488 273.9814 14.19550323  7274
CELESTIS-02             
1 25160U 98007D   22364.71790781  .00000057  00000+0  82939-4 0  9991
2 25160 107.9874 301.9854 0061053 135.5531 296.8904 14.21676654290977
CELESTIS-03             
1 26034U 99070C   22365.36278863  .00037823  00000+0  14088-2 0  9996
2 26034  98.3008  31.9369 0008318 166.2705 193.8759 15.27336720251043
O3B FM5                 
1 39188U 13031A   22364.17007684 -.00000019  00000+0  00000+0 0  9996
2 39188   0.0655   5.4225 0002876 278.2316  76.3118  5.00115343173758
O3B FM4                 
1 39189U 13031B   22364.22599771 -.00000019  00000+0  00000+0 0  9996
2 39189   0.0391 355.5675 0002812 287.9151  76.4840  5.00115872173770
O3B FM2                 
1 39190U 13031C   22364.51742055 -.00000019  00000+0  00000+0 0  9995
2 39190   0.0351 350.8118 0002802 291.6547  77.5002  5.00115116173838
O3B PFM                 
1 39191U 13031D   22364.34372981 -.00000019  00000+0  00000+0 0  9994
2 39191   0.0565   4.6998 0002757 273.9946  81.2724  5.00115820173397
O3B FM3                 
1 40079U 14038A   22364.99817574 -.00000019  00000+0  00000+0 0  9992
2 40079   0.0464 358.8458 0004265 249.0530 112.0540  5.00116661154882
O3B FM7                 
1 40080U 14038B   22364.34463265 -.00000019  00000+0  00000+0 0  9997
2 40080   0.0451 353.5493 0003034 322.5822  43.8424  5.00115555154608
O3B FM6                 
1 40081U 14038C   22364.57092890 -.00000019  00000+0  00000+0 0  9995
2 40081   0.0455 359.3151 0002832 279.9126  80.7383  5.00115310154888
O3B FM8                 
1 40082U 14038D   22364.02510977 -.00000019  00000+0  00000+0 0  9997
2 40082   0.0423 359.2277 0002668 278.0813  82.6586  5.00115686154659
O3B FM10                
1 40348U 14083A   22364.45105758 -.00000019  00000+0  00000+0 0  9996
2 40348   0.0518   6.8279 0002729 272.4609  80.6783  5.00115146146610
O3B FM11                
1 40349U 14083B   22364.26457503 -.00000019  00000+0  00000+0 0  9994
2 40349   0.0541   2.5076 0003078 289.1037  68.3538  5.00115410146630
O3B FM12                
1 40350U 14083C   22364.29180727 -.00000019  00000+0  00000+0 0  9990
2 40350   0.0532   2.5909 0002942 277.4658  79.9081  5.00115276146647
O3B FM9                 
1 40351U 14083D   22364.51841220 -.00000019  00000+0  00000+0 0  9998
2 40351   0.0550   1.5596 0002754 279.2542  79.1532  5.00116099146795
DIAMOND RED             
1 42783U 17036U   22364.37025293  .00016744  00000+0  55194-3 0  9997
2 42783  97.1770  38.6198 0009539   2.5246 357.6042 15.31477060306883
DIAMOND GREEN           
1 42785U 17036W   22364.36648449  .00017513  00000+0  57439-3 0  9991
2 42785  97.1771  38.6919 0009328   4.3346 355.7975 15.31632611306951
DIAMOND BLUE            
1 42786U 17036X   22364.62847398  .00016696  00000+0  54861-3 0  9992
2 42786  97.1771  38.9348 0009438   3.8002 356.3310 15.31581892306916
LEO VANTAGE 1           
1 43113U 18004C   22364.30178995  .00002524  00000+0  20676-3 0  9990
2 43113  99.2424 105.3311 0397371 322.7354  34.6860 14.54803155252703
O3B FM15                
1 43231U 18024A   22364.38446115 -.00000019  00000+0  00000+0 0  9996
2 43231   0.0507  10.5420 0003087 268.7037  80.7174  5.00116191 87758
O3B FM16                
1 43232U 18024B   22364.43788751 -.00000019  00000+0  00000+0 0  9998
2 43232   0.0507  15.2141 0003088 264.7445  80.0045  5.00115965 87670
O3B FM14                
1 43233U 18024C   22364.47764512 -.00000019  00000+0  00000+0 0  9992
2 43233   0.0501  16.8403 0003031 266.4963  76.6276  5.00115402 87689
O3B FM13                
1 43234U 18024D   22364.33129004 -.00000019  00000+0  00000+0 0  9999
2 43234   0.0596   6.1889 0003911 271.6535  82.1112  5.00115326 87792
O3B FM20                
1 44112U 19020A   22365.10400346 -.00000019  00000+0  00000+0 0  9999
2 44112   0.0511   6.7257 0003417 276.7648  76.4695  5.00115472 68414
O3B FM19                
1 44113U 19020B   22364.33129871 -.00000019  00000+0  00000+0 0  9995
2 44113   0.0702  15.4698 0002697 293.0408  51.4632  5.00115249 68166
O3B FM17                
1 44114U 19020C   22364.41171679 -.00000019  00000+0  00000+0 0  9998
2 44114   0.0336  19.1757 0003202 259.3689  81.4171  5.00115664 68258
O3B FM18                
1 44115U 19020D   22363.95842070 -.00000019  00000+0  00000+0 0  9997
2 44115   0.0515   6.6843 0002972 271.1214  82.1585  5.00115807 68351
SALSAT                  
1 46495U 20068K   22364.43665581  .00003867  00000+0  27201-3 0  9997
2 46495  97.7524 306.1326 0015492 340.1155  19.9466 15.05595338123662
ISS (ZARYA)             
1 25544U 98067A   22365.56674227  .00015667  00000+0  28399-3 0  9995
2 25544  51.6443  78.8244 0005306 207.8065 293.0314 15.49785292375795
AEROCUBE 12A            
1 43556U 18046C   22365.25361898  .00051191  00000+0  89645-3 0  9993
2 43556  51.6327 298.1834 0007197  53.6005 306.5646 15.50061442249718
AEROCUBE 12B            
1 43557U 18046D   22365.57237045  .00036974  00000+0  76732-3 0  9990
2 43557  51.6357 305.4605 0007501  42.9170 317.2401 15.45310902249599
LEMUR-2-VU              
1 43558U 18046E   22365.15804002  .00229930  00000+0  15057-2 0  9996
2 43558  51.6284 262.8206 0006714 115.2887 244.8809 15.74526095250173
LEMUR-2-ALEXANDER       
1 43559U 18046F   22365.41838754  .00784206  29092-3  15467-2 0  9990
2 43559  51.6286 252.5596 0021641 181.4281 178.6670 15.98988139250114
LEMUR-2-YUASA           
1 43560U 18046G   22364.97832332  .00491938  10045-3  17553-2 0  9991
2 43560  51.6344 260.1546 0017840 168.9343 191.2057 15.88041664250196
LEMUR-2-TOMHENDERSON    
1 43561U 18046H   22365.46188376  .00188273  00000+0  15272-2 0  9996
2 43561  51.6368 268.6302 0006624  90.8121 269.3635 15.69598005249687
ICS-EF (ISS DEB)        
1 45265U 98067RJ  22365.55045687  .00085961  00000+0  46136-3 0  9991
2 45265  51.6328  27.8459 0001454 290.7793  69.3053 15.79531653162588
ISS DEB                 
1 47853U 98067RZ  22364.90147239  .00019612  00000+0  25936-3 0  9995
2 47853  51.6400  68.7794 0002231  11.7664 348.3380 15.58333874102491
MMSATS-1                
1 47976U 98067SJ  22365.56791788  .00066870  00000+0  46146-3 0  9992
2 47976  51.6377  46.5037 0002544 355.6601 160.7041 15.73935619101123
CSS (TIANHE)            
1 48274U 21035A   22365.32041135  .00011729  00000+0  14464-3 0  9994
2 48274  41.4766  98.9181 0005540 249.0342 169.7690 15.60027810 95584
ISS (NAUKA)             
1 49044U 21066A   22364.54232639  .00016078  00000+0  29153-3 0  9991
2 49044  51.6440  83.8982 0005479 203.6079 338.0680 15.49753278375636
